[{"OBJECT_NAME":"STARLINK-35001","OBJECT_ID":"2025-184H","EPOCH":"2026-03-09T16:49:00.914592","MEAN_MOTION":15.05647396,"ECCENTRICITY":7.678e-5,"INCLINATION":97.6036,"RA_OF_ASC_NODE":122.6897,"ARG_OF_PERICENTER":108.4244,"MEAN_ANOMALY":251.7066,"EPHEMERIS_TYPE":0,"CLASSIFICATION_TYPE":"U","NORAD_CAT_ID":65280,"ELEMENT_SET_NO":999,"REV_AT_EPOCH":3130,"BSTAR":0.00010110195,"MEAN_MOTION_DOT":1.398e-5,"MEAN_MOTION_DDOT":0},{"OBJECT_NAME":"CZ-6A R\/B","OBJECT_ID":"2022-031C","EPOCH":"2026-03-09T19:50:55.360896","MEAN_MOTION":15.07476837,"ECCENTRICITY":0.00174842,"INCLINATION":97.8104,"RA_OF_ASC_NODE":273.2347,"ARG_OF_PERICENTER":181.6412,"MEAN_ANOMALY":178.4761,"EPHEMERIS_TYPE":0,"CLASSIFICATION_TYPE":"U","NORAD_CAT_ID":52152,"ELEMENT_SET_NO":999,"REV_AT_EPOCH":21633,"BSTAR":0.00020233161,"MEAN_MOTION_DOT":3.012e-5,"MEAN_MOTION_DDOT":0}]
